25286,IRIDIUM 63,1998,100.25,-1.0,-,86.39,Inactive,0,LEO,Kazakhstan,USA,Unknown,Unknown,Unknown,1 25286U 98021B   25083.47592039  .00001101  00000+0  36939-3 0  9995,2 25286  86.3947 117.6831 0002278  95.9017 264.2440 14.36440622411683,14.36440622,0.0002278,LEO
25319,IRIDIUM 69,1998,99.94,-1.0,-,86.4,Inactive,0,LEO,PRC,USA,Unknown,Unknown,Unknown,1 25319U 98026A   25083.40062464  .00001434  00000+0  44178-3 0  9997,2 25319  86.3971 131.2581 0001229  18.8544 341.2701 14.40844231410858,14.40844231,0.0001229,LEO
25320,IRIDIUM 71,1998,99.93,-1.0,-,86.4,Inactive,0,LEO,PRC,USA,Unknown,Unknown,Unknown,1 25320U 98026B   25083.48839120  .00001268  00000+0  38826-3 0  9996,2 25320  86.3958 125.9280 0003259  51.2761 308.8729 14.41048580411391,14.4104858,0.0003259,LEO
25344,IRIDIUM 73,1998,99.21,-1.0,-,86.44,Inactive,0,LEO,USA,USA,Unknown,Unknown,Unknown,1 25344U 98032C   25083.55194437  .00002274  00000+0  56387-3 0  9992,2 25344  86.4354  82.7671 0001789  85.5247 274.6163 14.51540122418284,14.51540122,0.0001789,LEO
25467,IRIDIUM 82,1998,94.3,-1.0,-,86.37,Inactive,0,LEO,USA,USA,Unknown,Unknown,Unknown,1 25467U 98051A   25082.93139959  .00044518  00000+0  14721-2 0  9990,2 25467  86.3726 151.4926 0092478 258.4032 100.6823 15.27051707410921,15.27051707,0.0092478,LEO
